ENDUROSAT ONE           
1 43551U 98067NZ  20220.40324122  .00088247  00000-0  33074-3 0  9991
2 43551  51.6326  13.2736 0004563 298.8992  61.1554 15.87122934118453
EQUISAT                 
1 43552U 98067PA  20220.47818291  .00035511  00000-0  21760-3 0  9999
2 43552  51.6315  26.0038 0004131 290.9546  69.1012 15.76937944118256
AEROCUBE 12A            
1 43556U 18046C   20220.38849468  .00000903  00000-0  43052-4 0  9998
2 43556  51.6408 220.7980 0008588 116.4609 243.7254 15.29927894115171
AEROCUBE 12B            
1 43557U 18046D   20220.39365463  .00000779  00000-0  39163-4 0  9997
2 43557  51.6410 221.5687 0008637 116.0711 244.1159 15.29631304115114
UITMSAT-1               
1 43589U 98067PD  20219.76111306  .00053077  00000-0  27071-3 0  9990
2 43589  51.6348  26.2615 0003493 303.0586  57.0080 15.80835889113925
MAYA-1                  
1 43590U 98067PE  20219.50110831  .00050426  00000-0  25774-3 0  9999
2 43590  51.6298  27.4954 0003429 298.1695  61.8961 15.80810858113812
BHUTAN-1                
1 43591U 98067PF  20220.47910063  .00054463  00000-0  27391-3 0  9995
2 43591  51.6356  22.1396 0003797 309.2223  50.8441 15.81128975113970
SIRIUSSAT-1             
1 43595U 98067PG  20220.56661855  .00040343  00000-0  23826-3 0  9992
2 43595  51.6286  27.9140 0002121 277.6500  82.4260 15.77714786113080
SIRIUSSAT-2             
1 43596U 98067PH  20220.56865217  .00040440  00000-0  23993-3 0  9994
2 43596  51.6280  28.7532 0002217 275.7603  84.3145 15.77610205113071
TANUSHA-3               
1 43597U 98067PJ  20220.50279552  .00205288  28018-4  46649-3 0  9999
2 43597  51.6245   9.9017 0006292 306.0402  54.0023 15.97050850113316
SURFSAT                 
1 43614U 18070B   20220.56878891  .00002596  00000-0  66314-4 0  9998
2 43614  93.0239 175.7254 0017215 132.1610 228.1110 15.39397359106340
CP7 (DAVE)              
1 43615U 18070C   20220.41017974  .00002600  00000-0  66750-4 0  9990
2 43615  93.0240 175.6469 0017357 132.3612 227.9115 15.39240145106310
ELFIN-B                 
1 43616U 18070D   20220.53446200  .00003414  00000-0  83515-4 0  9994
2 43616  93.0203 175.6581 0017747 133.0288 227.2457 15.40684529106384
ELFIN-A                 
1 43617U 18070E   20220.56136119  .00003980  00000-0  96694-4 0  9993
2 43617  93.0256 176.2239 0017249 129.8087 230.4690 15.40891102106390
CUBEBEL-1 (BSUSAT-1)    
1 43666U 18083E   20220.44850657  .00001067  00000-0  55174-4 0  9990
2 43666  97.4865 246.4056 0015030 176.5345 291.2605 15.18343573 98353
CICERO 10               
1 43690U 18088A   20220.50529016  .00000844  00000-0  36868-4 0  9992
2 43690  85.0359  44.6750 0016867 118.5846 241.7095 15.20293904 96515
IRVINE01                
1 43693U 18088D   20220.54529043  .00002344  00000-0  97319-4 0  9994
2 43693  85.0336  43.1810 0020025 101.7135 258.6356 15.23063154 96624
PROXIMA I               
1 43694U 18088E   20220.50477621  .00000999  00000-0  41641-4 0  9996
2 43694  85.0305  43.0786 0021484  95.0986 265.2709 15.22044917 96611
PROXIMA II              
1 43696U 18088G   20220.56868308  .00000986  00000-0  41087-4 0  9990
2 43696  85.0305  43.0404 0021530  94.8232 265.5469 15.22046656 96611
FACSAT-1                
1 43721U 18096C   20220.51155131  .00001279  00000-0  50440-4 0  9995
2 43721  97.4184 293.8068 0016039 305.5782  54.3961 15.27340971 94186
CENTAURI-2              
1 43722U 18096D   20220.45367317  .00001706  00000-0  65216-4 0  9992
2 43722  97.4196 294.0748 0016008 305.4156  54.5588 15.27900712 94180
INNOSAT-2               
1 43738U 18096V   20220.58942325  .00002306  00000-0  80248-4 0  9990
2 43738  97.4215 296.3958 0021785 310.5191  49.4151 15.30540465 94358
SIRION PATHFINDER-2     
1 43759U 18099B   20220.56993653 -.00000127  00000-0 -62775-5 0  9991
2 43759  97.7029 291.3516 0014710  18.6160 341.5596 14.95299059 91574
CORVUS-BC 4             
1 43767U 18099K   20220.53006881  .00000214  00000-0  24932-4 0  9992
2 43767  97.7007 290.6678 0012220  23.9729 336.2058 14.94741327 91533
MOVE-II                 
1 43780U 18099Y   20220.51159559  .00000008  00000-0  59226-5 0  9992
2 43780  97.7038 291.2414 0014160  30.0936 330.1095 14.95444621 91544
SPACEBEE-7              
1 43816U 18099BL  20220.17343826 -.00000039  00000-0  17056-5 0  9996
2 43816  97.7053 291.3313 0013718  16.2429 343.9229 14.95731532 91070
SPACEBEE-5              
1 43817U 18099BM  20220.43963595  .00000498  00000-0  48982-4 0  9996
2 43817  97.7109 292.1230 0013339  15.9569 344.2069 14.96392586 91136
SPACEBEE-6              
1 43818U 18099BN  20220.26395315  .00000481  00000-0  48032-4 0  9995
2 43818  97.7064 291.5847 0013401  15.6340 344.5292 14.95932780 91246
SHIELDS 1               
1 43850U 18104B   20220.30782407  .00000486  00000-0  19824-4 0  9997
2 43850  85.0317 141.7452 0012788 239.1499 120.8485 15.21424776 91202
STF-1                   
1 43852U 18104D   20220.52090753  .00001054  00000-0  45212-4 0  9991
2 43852  85.0358 142.1782 0012225 255.6385 104.3500 15.21369069 91212
ZACUBE-2                
1 43907U 18111AH  20220.51464764  .00000430  00000-0  20169-4 0  9997
2 43907  97.2601 118.7289 0020548 327.4996  32.4975 15.24633068 89796
LUME 1                  
1 43908U 18111AJ  20220.35753751  .00000998  00000-0  42461-4 0  9995
2 43908  97.2602 118.7830 0020259 327.6205  32.3788 15.25123902 89786
AOBA VELOX-IV           
1 43940U 19003J   20220.09699885  .00002000  00000-0  81886-4 0  9990
2 43940  97.2237 269.6311 0024985  47.5977 312.7369 15.25167527 86362
CATSAT-2                
1 44029U 98067PV  20220.55981120  .00020056  00000-0  19193-3 0  9995
2 44029  51.6385  56.7471 0003110 279.7232  80.3413 15.66678830 86537
DELPHINI                
1 44030U 98067PW  20220.54133602  .00021440  00000-0  19501-3 0  9991
2 44030  51.6338  54.9824 0003129 274.3012  85.7626 15.67892483 86523
UNITE                   
1 44031U 98067PX  20220.56463055  .00010106  00000-0  11879-3 0  9999
2 44031  51.6374  64.2418 0002287 265.8232  94.2501 15.62115009 86401
CATSAT-1                
1 44033U 98067PZ  20220.55965639  .00020115  00000-0  19238-3 0  9993
2 44033  51.6385  56.7540 0002975 280.3928  79.6732 15.66692349 86443
RAAVANA-1               
1 44329U 98067QE  20219.02259697  .00010845  00000-0  14447-3 0  9997
2 44329  51.6393  85.5102 0005631 181.5593 178.5383 15.58700626 64734
UGUISU                  
1 44330U 98067QF  20219.99972484  .00010312  00000-0  13808-3 0  9990
2 44330  51.6370  80.7691 0005663 185.3452 174.7481 15.58625373 64868
NEPALISAT-1             
1 44331U 98067QG  20219.84790837  .00010597  00000-0  14114-3 0  9991
2 44331  51.6371  81.2572 0005664 188.1340 171.9562 15.58734914 64852
SPOOQY-1                
1 44332U 98067QH  20220.17516346  .00009793  00000-0  13147-3 0  9992
2 44332  51.6378  79.6952 0004714 190.1330 169.9568 15.58629835 64869
SPACEBEE-9              
1 44370U 19037F   20220.27070669  .00008481  00000-0  18886-3 0  9996
2 44370  45.0054 191.4863 0011765 124.9952 235.2043 15.44048888 62458
SPACEBEE-8              
1 44371U 19037G   20220.25969072  .00017463  00000-0  32204-3 0  9990
2 44371  45.0059 183.8192 0010275 127.0623 233.1209 15.48898348 62547
IOD-1 GEMS              
1 44385U 98067QK  20220.01420846  .00018142  00000-0  21301-3 0  9991
2 44385  51.6394  77.9299 0002552 147.5436 212.5715 15.61536556 62397
MOVE-IIB                
1 44398U 19038N   20220.49828495  .00001250  00000-0  75327-4 0  9990
2 44398  97.5393 181.0910 0023996 314.9798  44.9488 15.12416598 60292
SONATE                  
1 44400U 19038Q   20220.47965005  .00000429  00000-0  28662-4 0  9998
2 44400  97.5435 181.0842 0024026 313.3257  46.5970 15.11999027 60280
LUCKY-7                 
1 44406U 19038W   20220.42011470  .00000576  00000-0  36961-4 0  9991
2 44406  97.5428 181.1464 0023446 313.2114  46.7158 15.12271732 60271
BEESAT 9                
1 44412U 19038AC  20220.54816141  .00000787  00000-0  48971-4 0  9997
2 44412  97.5419 181.2547 0021647 319.1170  40.8436 15.12368288 59993
JAISAT-1                
1 44419U 19038F   20220.41985139  .00000830  00000-0  50754-4 0  9995
2 44419  97.5421 181.4308 0020497 318.7750  41.1932 15.12851748 60301
SWIATOWID               
1 44426U 98067QL  20220.45717720  .00025705  00000-0  28572-3 0  9995
2 44426  51.6409  74.7065 0002832 138.8541 293.1068 15.62713584 62482
KRAKSAT                 
1 44427U 98067QM  20220.45916530  .00008909  00000-0  12967-3 0  9994
2 44427  51.6431  82.2608 0003851 136.6250 286.5996 15.56572508 62422
VCC A                   
1 44428U 98067QN  20219.99809685  .00009884  00000-0  13551-3 0  9997
2 44428  51.6400  82.3205 0002794 154.4065 205.7066 15.58053305 62387
ENTRYSAT                
1 44429U 98067QP  20220.18941775  .00012137  00000-0  15781-3 0  9990
2 44429  51.6387  79.8144 0002601 149.0804 211.0342 15.59223526 62431
VCC C                   
1 44430U 98067QQ  20220.50587897  .00016229  00000-0  19787-3 0  9995
2 44430  51.6379  76.6863 0002266 167.5953 192.5097 15.60641026 61333
VCC B                   
1 44431U 98067QR  20217.36664895  .00012389  00000-0  16820-3 0  9998
2 44431  51.6389  95.4771 0002889 142.1020 218.0176 15.58041888 61910
ATL-1                   
1 44830U 19084G   20220.58902627  .00087518  45507-5  37290-3 0  9995
2 44830  96.9636  90.4135 0020235  45.7009 314.5918 15.84979367 38538
SMOG-P                  
1 44832U 19084J   20220.58902836  .00108958  60933-5  40931-3 0  9997
2 44832  96.9642  90.7266 0017833  44.6080 315.6624 15.87616934 38551
DUCHIFAT-3              
1 44854U 19089C   20220.18278653  .00000342  00000-0  34073-4 0  9998
2 44854  36.9671 158.5443 0007267 112.2962 247.8553 14.99096610 35911
EYESAT-NANO             
1 44877U 19092E   20220.46455917  .00000939  00000-0  50952-4 0  9994
2 44877  97.4564  42.9319 0013111 195.2525 164.8315 15.16906943 35326
